STARLINK-2231           
1 48577U 21041AA  26068.44748311  .00003735  00000+0  13810-3 0  9996
2 48577  53.1594 128.0140 0001251  77.7398 282.3743 15.30217025265239
YAOGAN-43 01D           
1 60461U 24148D   26068.43560480  .00010676  00000+0  37766-3 0  9999
2 60461  35.0010  61.7102 0002556 326.2473  33.8080 15.28369377 87008
